*******************************************************************************
 Revised: April 12, 2021                 Earth                              399
 
 GEOPHYSICAL PROPERTIES (revised May 9, 2022):
  Vol. Mean Radius (km)    = 6371.01+-0.02   Mass x10^24 (kg)= 5.97219+-0.0006
  Equ. radius, km          = 6378.137        Mass layers:
  Polar axis, km           = 6356.752          Atmos         = 5.1   x 10^18 kg
  Flattening               = 1/298.257223563   oceans        = 1.4   x 10^21 kg
  Density, g/cm^3          = 5.51              crust         = 2.6   x 10^22 kg
  J2 (IERS 2010)           = 0.00108262545     mantle        = 4.043 x 10^24 kg
  g_p, m/s^2  (polar)      = 9.8321863685      outer core    = 1.835 x 10^24 kg
  g_e, m/s^2  (equatorial) = 9.7803267715      inner core    = 9.675 x 10^22 kg
  g_o, m/s^2               = 9.82022         Fluid core rad  = 3480 km
  GM, km^3/s^2             = 398600.435436   Inner core rad  = 1215 km
  GM 1-sigma, km^3/s^2     =      0.0014     Escape velocity = 11.186 km/s
  Rot. Rate (rad/s)        = 0.00007292115   Surface area:
  Mean sidereal day, hr    = 23.9344695944     land          = 1.48 x 10^8 km
  Mean solar day 2000.0, s = 86400.002         sea           = 3.62 x 10^8 km
  Mean solar day 1820.0, s = 86400.0         Love no., k2    = 0.299
  Moment of inertia        = 0.3308          Atm. pressure   = 1.0 bar
  Mean surface temp (Ts), K= 287.6           Volume, km^3    = 1.08321 x 10^12
  Mean effect. temp (Te), K= 255             Magnetic moment = 0.61 gauss Rp^3
  Geometric albedo         = 0.367           Vis. mag. V(1,0)= -3.86
  Solar Constant (W/m^2)   = 1367.6 (mean), 1414 (perihelion), 1322 (aphelion)
 HELIOCENTRIC ORBIT CHARACTERISTICS:
  Obliquity to orbit, deg  = 23.4392911  Sidereal orb period  = 1.0000174 y
  Orbital speed, km/s      = 29.79       Sidereal orb period  = 365.25636 d
  Mean daily motion, deg/d = 0.9856474   Hill's sphere radius = 234.9       
*******************************************************************************


*******************************************************************************
Ephemeris / WWW_USER Tue Mar  7 10:34:00 2023 Pasadena, USA      / Horizons
*******************************************************************************
Target body name: Earth (399)                     {source: DE441}
Center body name: Solar System Barycenter (0)     {source: DE441}
Center-site name: BODY CENTER
*******************************************************************************
Start time      : A.D. 2021-Nov-16 00:00:00.0000 TDB
Stop  time      : A.D. 2023-Feb-01 00:00:00.0000 TDB
Step-size       : 1440 minutes
*******************************************************************************
Center geodetic : 0.0, 0.0, 0.0                   {E-lon(deg),Lat(deg),Alt(km)}
Center cylindric: 0.0, 0.0, 0.0                   {E-lon(deg),Dxy(km),Dz(km)}
Center radii    : (undefined)
Output units    : KM-S
Calendar mode   : Mixed Julian/Gregorian
Output type     : GEOMETRIC cartesian states
Output format   : 1 (position only)
Reference frame : Ecliptic of J2000.0
*******************************************************************************
            JDTDB,            Calendar Date (TDB),                      X,                      Y,                      Z,
**************************************************************************************************************************
$$SOE
2459799.500000000, A.D. 2022-Aug-08 00:00:00.0000,  1.061975637448533E+08, -1.067717782786896E+08,  3.487394873499125E+04,
2459800.500000000, A.D. 2022-Aug-09 00:00:00.0000,  1.079542235757940E+08, -1.049430434630784E+08,  3.486209426485002E+04,
2459801.500000000, A.D. 2022-Aug-10 00:00:00.0000,  1.096798671470976E+08, -1.030847313659802E+08,  3.483156583251059E+04,
2459802.500000000, A.D. 2022-Aug-11 00:00:00.0000,  1.113740607343474E+08, -1.011973453207252E+08,  3.477834625992924E+04,
2459803.500000000, A.D. 2022-Aug-12 00:00:00.0000,  1.130363736462051E+08, -9.928137658581021E+07,  3.469999149012566E+04,
2459804.500000000, A.D. 2022-Aug-13 00:00:00.0000,  1.146663713760412E+08, -9.733730709222139E+07,  3.459591915393621E+04,
2459805.500000000, A.D. 2022-Aug-14 00:00:00.0000,  1.162636106458579E+08, -9.536561494484842E+07,  3.446740702034533E+04,
2459806.500000000, A.D. 2022-Aug-15 00:00:00.0000,  1.178276374589840E+08, -9.336678122420940E+07,  3.431731512879580E+04,
2459807.500000000, A.D. 2022-Aug-16 00:00:00.0000,  1.193579881498435E+08, -9.134129634736556E+07,  3.414963661992922E+04,
2459808.500000000, A.D. 2022-Aug-17 00:00:00.0000,  1.208541924846975E+08, -8.928966476383358E+07,  3.396901265790686E+04,
2459809.500000000, A.D. 2022-Aug-18 00:00:00.0000,  1.223157775671150E+08, -8.721240762390526E+07,  3.378031499500200E+04,
2459810.500000000, A.D. 2022-Aug-19 00:00:00.0000,  1.237422715621006E+08, -8.511006374083951E+07,  3.358834176754951E+04,
2459811.500000000, A.D. 2022-Aug-20 00:00:00.0000,  1.251332067294294E+08, -8.298318946001734E+07,  3.339762340402231E+04,
2459812.500000000, A.D. 2022-Aug-21 00:00:00.0000,  1.264881216680515E+08, -8.083235802369967E+07,  3.321231001638994E+04,
2459813.500000000, A.D. 2022-Aug-22 00:00:00.0000,  1.278065629169111E+08, -7.865815884935194E+07,  3.303610589132458E+04,
2459814.500000000, A.D. 2022-Aug-23 00:00:00.0000,  1.290880861537745E+08, -7.646119694875583E+07,  3.287222182295471E+04,
2459815.500000000, A.D. 2022-Aug-24 00:00:00.0000,  1.303322572391267E+08, -7.424209255879214E+07,  3.272332507593930E+04,
2459816.500000000, A.D. 2022-Aug-25 00:00:00.0000,  1.315386533115567E+08, -7.200148094172376E+07,  3.259147626853362E+04,
2459817.500000000, A.D. 2022-Aug-26 00:00:00.0000,  1.327068640774271E+08, -6.974001223641872E+07,  3.247805127751455E+04,
2459818.500000000, A.D. 2022-Aug-27 00:00:00.0000,  1.338364933602252E+08, -6.745835119729292E+07,  3.238365405323356E+04,
2459819.500000000, A.D. 2022-Aug-28 00:00:00.0000,  1.349271608901741E+08, -6.515717664587778E+07,  3.230803247945011E+04,
2459820.500000000, A.D. 2022-Aug-29 00:00:00.0000,  1.359785042334702E+08, -6.283718048373541E+07,  3.225001320592314E+04,
2459821.500000000, A.D. 2022-Aug-30 00:00:00.0000,  1.369901806992448E+08, -6.049906617185940E+07,  3.220747184600681E+04,
2459822.500000000, A.D. 2022-Aug-31 00:00:00.0000,  1.379618690358163E+08, -5.814354665607470E+07,  3.217735201539099E+04,
2459823.500000000, A.D. 2022-Sep-01 00:00:00.0000,  1.388932707385936E+08, -5.577134178657238E+07,  3.215574169592559E+04,
2459824.500000000, A.D. 2022-Sep-02 00:00:00.0000,  1.397841108242073E+08, -5.338317532165303E+07,  3.213801066166535E+04,
2459825.500000000, A.D. 2022-Sep-03 00:00:00.0000,  1.406341379499037E+08, -5.097977161826046E+07,  3.211901024608687E+04,
2459826.500000000, A.D. 2022-Sep-04 00:00:00.0000,  1.414431237490782E+08, -4.856185211892754E+07,  3.209333665857837E+04,
2459827.500000000, A.D. 2022-Sep-05 00:00:00.0000,  1.422108612151045E+08, -4.613013179020876E+07,  3.205565850447118E+04,
2459828.500000000, A.D. 2022-Sep-06 00:00:00.0000,  1.429371619415938E+08, -4.368531579032309E+07,  3.200110282256268E+04,
2459829.500000000, A.D. 2022-Sep-07 00:00:00.0000,  1.436218521016893E+08, -4.122809683787113E+07,  3.192567686923034E+04,
2459830.500000000, A.D. 2022-Sep-08 00:00:00.0000,  1.442647673024044E+08, -3.875915393093681E+07,  3.182667552098632E+04,
2459831.500000000, A.D. 2022-Sep-09 00:00:00.0000,  1.448657468765031E+08, -3.627915306042843E+07,  3.170299742434546E+04,
2459832.500000000, A.D. 2022-Sep-10 00:00:00.0000,  1.454246286069318E+08, -3.378875022277819E+07,  3.155528703113087E+04,
2459833.500000000, A.D. 2022-Sep-11 00:00:00.0000,  1.459412450283155E+08, -3.128859639391678E+07,  3.138585096344724E+04,
2459834.500000000, A.D. 2022-Sep-12 00:00:00.0000,  1.464154221125961E+08, -2.877934346677346E+07,  3.119836047454178E+04,
2459835.500000000, A.D. 2022-Sep-13 00:00:00.0000,  1.468469804243667E+08, -2.626164986344262E+07,  3.099741617835313E+04,
2459836.500000000, A.D. 2022-Sep-14 00:00:00.0000,  1.472357381082885E+08, -2.373618478069830E+07,  3.078808161078393E+04,
2459837.500000000, A.D. 2022-Sep-15 00:00:00.0000,  1.475815147102070E+08, -2.120363062933780E+07,  3.057547707697190E+04,
2459838.500000000, A.D. 2022-Sep-16 00:00:00.0000,  1.478841349187345E+08, -1.866468382640924E+07,  3.036448194602318E+04,
2459839.500000000, A.D. 2022-Sep-17 00:00:00.0000,  1.481434316666591E+08, -1.612005444585092E+07,  3.015954918787908E+04,
2459840.500000000, A.D. 2022-Sep-18 00:00:00.0000,  1.483592484143378E+08, -1.357046529629105E+07,  2.996460757643078E+04,
2459841.500000000, A.D. 2022-Sep-19 00:00:00.0000,  1.485314407095866E+08, -1.101665087984734E+07,  2.978301691655954E+04,
2459842.500000000, A.D. 2022-Sep-20 00:00:00.0000,  1.486598772557384E+08, -8.459356511486022E+06,  2.961754395436682E+04,
2459843.500000000, A.D. 2022-Sep-21 00:00:00.0000,  1.487444407576295E+08, -5.899337715173778E+06,  2.947033457952226E+04,
2459844.500000000, A.D. 2022-Sep-22 00:00:00.0000,  1.487850287972004E+08, -3.337359882077453E+06,  2.934286743328907E+04,
2459845.500000000, A.D. 2022-Sep-23 00:00:00.0000,  1.487815549415837E+08, -7.741980734065915E+05,  2.923588374742185E+04,
2459846.500000000, A.D. 2022-Sep-24 00:00:00.0000,  1.487339502126168E+08,  1.789363230737144E+06,  2.914929820812820E+04,
2459847.500000000, A.D. 2022-Sep-25 00:00:00.0000,  1.486421649433622E+08,  4.352530691217781E+06,  2.908210586809739E+04,
2459848.500000000, A.D. 2022-Sep-26 00:00:00.0000,  1.485061709143285E+08,  6.914503246161940E+06,  2.903230942732003E+04,
2459849.500000000, A.D. 2022-Sep-27 00:00:00.0000,  1.483259635176300E+08,  9.474474037015269E+06,  2.899689681733074E+04,
2459850.500000000, A.D. 2022-Sep-28 00:00:00.0000,  1.481015635825894E+08,  1.203163320366906E+07,  2.897189752999414E+04,
2459851.500000000, A.D. 2022-Sep-29 00:00:00.0000,  1.478330184626887E+08,  1.458517143532037E+07,  2.895253563589603E+04,
